{"fetched_at":"2026-07-19T17:31:54.212Z","source":"https://celestrak.org/NORAD/elements/gp.php?NAME=SENTINEL&FORMAT=JSON","constellation":"sentinel-3","records":[{"OBJECT_NAME":"SENTINEL-3A","OBJECT_ID":"2016-011A","EPOCH":"2026-07-19T06:22:53.741856","CLASSIFICATION_TYPE":"U","MEAN_MOTION":14.26740492,"ECCENTRICITY":0.0001318,"INCLINATION":98.6234,"RA_OF_ASC_NODE":267.1862,"ARG_OF_PERICENTER":89.1446,"MEAN_ANOMALY":270.9885,"EPHEMERIS_TYPE":0,"NORAD_CAT_ID":41335,"ELEMENT_SET_NO":999,"REV_AT_EPOCH":54263,"BSTAR":0.000034464213,"MEAN_MOTION_DOT":4e-7,"MEAN_MOTION_DDOT":0},{"OBJECT_NAME":"SENTINEL-3B","OBJECT_ID":"2018-039A","EPOCH":"2026-07-19T04:03:14.774400","CLASSIFICATION_TYPE":"U","MEAN_MOTION":14.26737055,"ECCENTRICITY":0.00012362,"INCLINATION":98.6233,"RA_OF_ASC_NODE":267.2398,"ARG_OF_PERICENTER":119.0606,"MEAN_ANOMALY":241.0698,"EPHEMERIS_TYPE":0,"NORAD_CAT_ID":43437,"ELEMENT_SET_NO":999,"REV_AT_EPOCH":42868,"BSTAR":0.000034721791,"MEAN_MOTION_DOT":4e-7,"MEAN_MOTION_DDOT":0}]}
